{
  "type": "FeatureCollection",
  "features": [
    {
      "type": "Feature",
      "properties": {
        "norad_id": 34971,
        "name": "COSMOS 2251 DEB",
        "group": "cosmos-2251-debris",
        "lat": -19.042596504691975,
        "lon": -71.55970913138205,
        "alt_km": 761.592894482772,
        "timestamp": "2025-12-07T22:37:43.477713+00:00",
        "meta_object_name": "COSMOS 2251 DEB",
        "meta_object_id": "1993-036AFA",
        "meta_epoch": "2025-12-06T14:16:08.154912",
        "meta_mean_motion": 14.55618796,
        "meta_eccentricity": 0.00698698,
        "meta_inclination": 73.978,
        "meta_ra_of_asc_node": 296.6954,
        "meta_arg_of_pericenter": 163.9786,
        "meta_mean_anomaly": 313.6169,
        "meta_ephemeris_type": 0,
        "meta_classification_type": "U",
        "meta_norad_cat_id": 34971,
        "meta_element_set_no": 999,
        "meta_rev_at_epoch": 66083,
        "meta_bstar": 0.00032064289,
        "meta_mean_motion_dot": 1.416e-05,
        "meta_mean_motion_ddot": 0,
        "tle_line1": "1 34971U 93036AFA 25340.59453883  .00001416  00000+0  32064-3 0  9993",
        "tle_line2": "2 34971  73.9780 296.6954 0069869 163.9786 313.6169 14.55618796660833"
      },
      "geometry": {
        "type": "Point",
        "coordinates": [
          -71.55970913138205,
          -19.042596504691975
        ]
      }
    },
    {
      "type": "Feature",
      "properties": {
        "norad_id": 34972,
        "name": "COSMOS 2251 DEB",
        "group": "cosmos-2251-debris",
        "lat": -61.85350999643331,
        "lon": 26.770620624449666,
        "alt_km": 652.9967189562049,
        "timestamp": "2025-12-07T22:37:43.477725+00:00",
        "meta_object_name": "COSMOS 2251 DEB",
        "meta_object_id": "1993-036AFB",
        "meta_epoch": "2025-12-03T06:34:34.182336",
        "meta_mean_motion": 14.72590746,
        "meta_eccentricity": 0.0034486,
        "meta_inclination": 73.9887,
        "meta_ra_of_asc_node": 68.345,
        "meta_arg_of_pericenter": 228.4328,
        "meta_mean_anomaly": 162.7226,
        "meta_ephemeris_type": 0,
        "meta_classification_type": "U",
        "meta_norad_cat_id": 34972,
        "meta_element_set_no": 999,
        "meta_rev_at_epoch": 87511,
        "meta_bstar": 0.0021523,
        "meta_mean_motion_dot": 0.0001382,
        "meta_mean_motion_ddot": 0,
        "tle_line1": "1 34972U 93036AFB 25337.27400674  .00013820  00000+0  21523-2 0  9994",
        "tle_line2": "2 34972  73.9887  68.3450 0034486 228.4328 162.7226 14.72590746875112"
      },
      "geometry": {
        "type": "Point",
        "coordinates": [
          26.770620624449666,
          -61.85350999643331
        ]
      }
    },
    {
      "type": "Feature",
      "properties": {
        "norad_id": 34976,
        "name": "COSMOS 2251 DEB",
        "group": "cosmos-2251-debris",
        "lat": -34.843562524897564,
        "lon": -55.84521936736126,
        "alt_km": 620.712527346669,
        "timestamp": "2025-12-07T22:37:43.477749+00:00",
        "meta_object_name": "COSMOS 2251 DEB",
        "meta_object_id": "1993-036AFF",
        "meta_epoch": "2025-12-07T04:58:26.927040",
        "meta_mean_motion": 14.76379192,
        "meta_eccentricity": 0.00478535,
        "meta_inclination": 74.0577,
        "meta_ra_of_asc_node": 317.071,
        "meta_arg_of_pericenter": 4.9947,
        "meta_mean_anomaly": 10.8679,
        "meta_ephemeris_type": 0,
        "meta_classification_type": "U",
        "meta_norad_cat_id": 34976,
        "meta_element_set_no": 999,
        "meta_rev_at_epoch": 88192,
        "meta_bstar": 0.0023287343,
        "meta_mean_motion_dot": 0.00016492,
        "meta_mean_motion_ddot": 0,
        "tle_line1": "1 34976U 93036AFF 25341.20725610  .00016492  00000+0  23287-2 0  9993",
        "tle_line2": "2 34976  74.0577 317.0710 0047853   4.9947  10.8679 14.76379192881928"
      },
      "geometry": {
        "type": "Point",
        "coordinates": [
          -55.84521936736126,
          -34.843562524897564
        ]
      }
    },
    {
      "type": "Feature",
      "properties": {
        "norad_id": 34979,
        "name": "COSMOS 2251 DEB",
        "group": "cosmos-2251-debris",
        "lat": -34.615005338153466,
        "lon": -94.69244806138866,
        "alt_km": 608.3850497273388,
        "timestamp": "2025-12-07T22:37:43.477762+00:00",
        "meta_object_name": "COSMOS 2251 DEB",
        "meta_object_id": "1993-036AFJ",
        "meta_epoch": "2025-12-06T19:11:46.972608",
        "meta_mean_motion": 14.79164969,
        "meta_eccentricity": 0.00491491,
        "meta_inclination": 74.0406,
        "meta_ra_of_asc_node": 278.9469,
        "meta_arg_of_pericenter": 358.1213,
        "meta_mean_anomaly": 1.977,
        "meta_ephemeris_type": 0,
        "meta_classification_type": "U",
        "meta_norad_cat_id": 34979,
        "meta_element_set_no": 999,
        "meta_rev_at_epoch": 88132,
        "meta_bstar": 0.0021873497,
        "meta_mean_motion_dot": 0.00016564,
        "meta_mean_motion_ddot": 0,
        "tle_line1": "1 34979U 93036AFJ 25340.79984922  .00016564  00000+0  21873-2 0  9991",
        "tle_line2": "2 34979  74.0406 278.9469 0049149 358.1213   1.9770 14.79164969881322"
      },
      "geometry": {
        "type": "Point",
        "coordinates": [
          -94.69244806138866,
          -34.615005338153466
        ]
      }
    },
    {
      "type": "Feature",
      "properties": {
        "norad_id": 34990,
        "name": "COSMOS 2251 DEB",
        "group": "cosmos-2251-debris",
        "lat": -14.407449546628358,
        "lon": -103.98760829372031,
        "alt_km": 744.258678316045,
        "timestamp": "2025-12-07T22:37:43.477772+00:00",
        "meta_object_name": "COSMOS 2251 DEB",
        "meta_object_id": "1993-036AFN",
        "meta_epoch": "2025-12-07T01:03:28.213920",
        "meta_mean_motion": 14.42350123,
        "meta_eccentricity": 0.00162731,
        "meta_inclination": 74.0455,
        "meta_ra_of_asc_node": 261.8923,
        "meta_arg_of_pericenter": 325.0179,
        "meta_mean_anomaly": 34.9906,
        "meta_ephemeris_type": 0,
        "meta_classification_type": "U",
        "meta_norad_cat_id": 34990,
        "meta_element_set_no": 999,
        "meta_rev_at_epoch": 87264,
        "meta_bstar": 0.00072596004,
        "meta_mean_motion_dot": 2.377e-05,
        "meta_mean_motion_ddot": 0,
        "tle_line1": "1 34990U 93036AFN 25341.04407655  .00002377  00000+0  72596-3 0  9992",
        "tle_line2": "2 34990  74.0455 261.8923 0016273 325.0179  34.9906 14.42350123872642"
      },
      "geometry": {
        "type": "Point",
        "coordinates": [
          -103.98760829372031,
          -14.407449546628358
        ]
      }
    },
    {
      "type": "Feature",
      "properties": {
        "norad_id": 34997,
        "name": "COSMOS 2251 DEB",
        "group": "cosmos-2251-debris",
        "lat": 72.60180155677132,
        "lon": 72.86306625099574,
        "alt_km": 798.9555188149661,
        "timestamp": "2025-12-07T22:37:43.477783+00:00",
        "meta_object_name": "COSMOS 2251 DEB",
        "meta_object_id": "1993-036AFV",
        "meta_epoch": "2025-12-07T05:34:12.850752",
        "meta_mean_motion": 14.45441909,
        "meta_eccentricity": 0.00980928,
        "meta_inclination": 73.8797,
        "meta_ra_of_asc_node": 321.5637,
        "meta_arg_of_pericenter": 297.5324,
        "meta_mean_anomaly": 61.5891,
        "meta_ephemeris_type": 0,
        "meta_classification_type": "U",
        "meta_norad_cat_id": 34997,
        "meta_element_set_no": 999,
        "meta_rev_at_epoch": 70667,
        "meta_bstar": 0.0028258875,
        "meta_mean_motion_dot": 0.00010545,
        "meta_mean_motion_ddot": 0,
        "tle_line1": "1 34997U 93036AFV 25341.23209318  .00010545  00000+0  28259-2 0  9998",
        "tle_line2": "2 34997  73.8797 321.5637 0098092 297.5324  61.5891 14.45441909706679"
      },
      "geometry": {
        "type": "Point",
        "coordinates": [
          72.86306625099574,
          72.60180155677132
        ]
      }
    },
    {
      "type": "Feature",
      "properties": {
        "norad_id": 34998,
        "name": "COSMOS 2251 DEB",
        "group": "cosmos-2251-debris",
        "lat": -73.98923083255372,
        "lon": 81.08853514239149,
        "alt_km": 724.4027128926964,
        "timestamp": "2025-12-07T22:37:43.477793+00:00",
        "meta_object_name": "COSMOS 2251 DEB",
        "meta_object_id": "1993-036AFW",
        "meta_epoch": "2025-12-06T14:10:19.581024",
        "meta_mean_motion": 14.49241816,
        "meta_eccentricity": 0.00209325,
        "meta_inclination": 74.0093,
        "meta_ra_of_asc_node": 171.5347,
        "meta_arg_of_pericenter": 317.8049,
        "meta_mean_anomaly": 100.156,
        "meta_ephemeris_type": 0,
        "meta_classification_type": "U",
        "meta_norad_cat_id": 34998,
        "meta_element_set_no": 999,
        "meta_rev_at_epoch": 87331,
        "meta_bstar": 0.00096729331,
        "meta_mean_motion_dot": 3.671e-05,
        "meta_mean_motion_ddot": 0,
        "tle_line1": "1 34998U 93036AFW 25340.59050441  .00003671  00000+0  96729-3 0  9998",
        "tle_line2": "2 34998  74.0093 171.5347 0020932 317.8049 100.1560 14.49241816873319"
      },
      "geometry": {
        "type": "Point",
        "coordinates": [
          81.08853514239149,
          -73.98923083255372
        ]
      }
    }
  ]
}